{"type": "FeatureCollection", "features": [ {"type": "Feature", "properties": {"norad_id": 30048, "name": "FENGYUN 1C DEB", "group": "fengyun-1c-debris", "lat": -24.83149247905454, "lon": -146.98265647150814, "alt_km": 942.0938342188974, "timestamp": "2025-12-08T19:31:49.083059+00:00", "meta": {"OBJECT_NAME": "FENGYUN 1C DEB", "OBJECT_ID": "1999-025NZ", "EPOCH": "2025-12-08T03:00:12.853728", "MEAN_MOTION": 13.79888876, "ECCENTRICITY": 0.01862655, "INCLINATION": 98.6669, "RA_OF_ASC_NODE": 208.339, "ARG_OF_PERICENTER": 257.4479, "MEAN_ANOMALY": 256.5307, "EPHEMERIS_TYPE": 0, "CLASSIFICATION_TYPE": "U", "NORAD_CAT_ID": 30048, "ELEMENT_SET_NO": 999, "REV_AT_EPOCH": 95062, "BSTAR": 0.00041840984, "MEAN_MOTION_DOT": 4.53e-06, "MEAN_MOTION_DDOT": 0}, "tle": {"line1": "1 30048U 99025NZ  25342.12514877  .00000453  00000+0  41841-3 0  9993", "line2": "2 30048  98.6669 208.3390 0186265 257.4479 256.5307 13.79888876950627"}}, "geometry": {"type": "Point", "coordinates": [-146.98265647150814, -24.83149247905454]}}, {"type": "Feature", "properties": {"norad_id": 30050, "name": "FENGYUN 1C DEB", "group": "fengyun-1c-debris", "lat": -64.19022595079583, "lon": 109.74644327266165, "alt_km": 1068.0938302771556, "timestamp": "2025-12-08T19:31:49.083068+00:00", "meta": {"OBJECT_NAME": "FENGYUN 1C DEB", "OBJECT_ID": "1999-025PB", "EPOCH": "2025-12-08T04:33:41.690304", "MEAN_MOTION": 13.85026279, "ECCENTRICITY": 0.01716681, "INCLINATION": 96.8178, "RA_OF_ASC_NODE": 303.6137, "ARG_OF_PERICENTER": 43.0403, "MEAN_ANOMALY": 334.7227, "EPHEMERIS_TYPE": 0, "CLASSIFICATION_TYPE": "U", "NORAD_CAT_ID": 30050, "ELEMENT_SET_NO": 999, "REV_AT_EPOCH": 95139, "BSTAR": 0.0017967652, "MEAN_MOTION_DOT": 2.255e-05, "MEAN_MOTION_DDOT": 0}, "tle": {"line1": "1 30050U 99025PB  25342.19006586  .00002255  00000+0  17968-2 0  9990", "line2": "2 30050  96.8178 303.6137 0171668  43.0403 334.7227 13.85026279951393"}}, "geometry": {"type": "Point", "coordinates": [109.74644327266165, -64.19022595079583]}}, {"type": "Feature", "properties": {"norad_id": 30052, "name": "FENGYUN 1C DEB", "group": "fengyun-1c-debris", "lat": -24.16320080809577, "lon": 12.732226935409244, "alt_km": 999.4786158034667, "timestamp": "2025-12-08T19:31:49.083077+00:00", "meta": {"OBJECT_NAME": "FENGYUN 1C DEB", "OBJECT_ID": "1999-025PD", "EPOCH": "2025-12-08T07:29:32.210304", "MEAN_MOTION": 13.72952822, "ECCENTRICITY": 0.02889014, "INCLINATION": 99.2997, "RA_OF_ASC_NODE": 8.0288, "ARG_OF_PERICENTER": 243.8889, "MEAN_ANOMALY": 130.572, "EPHEMERIS_TYPE": 0, "CLASSIFICATION_TYPE": "U", "NORAD_CAT_ID": 30052, "ELEMENT_SET_NO": 999, "REV_AT_EPOCH": 94494, "BSTAR": 0.00080568481, "MEAN_MOTION_DOT": 9.58e-06, "MEAN_MOTION_DDOT": 0}, "tle": {"line1": "1 30052U 99025PD  25342.31217836  .00000958  00000+0  80568-3 0  9993", "line2": "2 30052  99.2997   8.0288 0288901 243.8889 130.5720 13.72952822944942"}}, "geometry": {"type": "Point", "coordinates": [12.732226935409244, -24.16320080809577]}}, {"type": "Feature", "properties": {"norad_id": 30053, "name": "FENGYUN 1C DEB", "group": "fengyun-1c-debris", "lat": -47.01272181515523, "lon": -33.124147814942646, "alt_km": 1042.2175205901249, "timestamp": "2025-12-08T19:31:49.083087+00:00", "meta": {"OBJECT_NAME": "FENGYUN 1C DEB", "OBJECT_ID": "1999-025PE", "EPOCH": "2025-12-08T05:30:29.554272", "MEAN_MOTION": 13.94100934, "ECCENTRICITY": 0.0331662, "INCLINATION": 98.5757, "RA_OF_ASC_NODE": 155.6488, "ARG_OF_PERICENTER": 350.949, "MEAN_ANOMALY": 189.3422, "EPHEMERIS_TYPE": 0, "CLASSIFICATION_TYPE": "U", "NORAD_CAT_ID": 30053, "ELEMENT_SET_NO": 999, "REV_AT_EPOCH": 94923, "BSTAR": 0.0020013935, "MEAN_MOTION_DOT": 4.146e-05, "MEAN_MOTION_DDOT": 0}, "tle": {"line1": "1 30053U 99025PE  25342.22950873  .00004146  00000+0  20014-2 0  9991", "line2": "2 30053  98.5757 155.6488 0331662 350.9490 189.3422 13.94100934949232"}}, "geometry": {"type": "Point", "coordinates": [-33.124147814942646, -47.01272181515523]}}, {"type": "Feature", "properties": {"norad_id": 30054, "name": "FENGYUN 1C DEB", "group": "fengyun-1c-debris", "lat": -50.758184801438986, "lon": 26.81253107762059, "alt_km": 922.9050304478924, "timestamp": "2025-12-08T19:31:49.083096+00:00", "meta": {"OBJECT_NAME": "FENGYUN 1C DEB", "OBJECT_ID": "1999-025PF", "EPOCH": "2025-12-08T00:48:59.090400", "MEAN_MOTION": 13.69856227, "ECCENTRICITY": 0.02760831, "INCLINATION": 99.3719, "RA_OF_ASC_NODE": 14.3877, "ARG_OF_PERICENTER": 17.4814, "MEAN_ANOMALY": 50.4929, "EPHEMERIS_TYPE": 0, "CLASSIFICATION_TYPE": "U", "NORAD_CAT_ID": 30054, "ELEMENT_SET_NO": 999, "REV_AT_EPOCH": 94284, "BSTAR": 0.00077932335, "MEAN_MOTION_DOT": 8.5e-06, "MEAN_MOTION_DDOT": 0}, "tle": {"line1": "1 30054U 99025PF  25342.03401725  .00000850  00000+0  77932-3 0  9998", "line2": "2 30054  99.3719  14.3877 0276083  17.4814  50.4929 13.69856227942848"}}, "geometry": {"type": "Point", "coordinates": [26.81253107762059, -50.758184801438986]}}, {"type": "Feature", "properties": {"norad_id": 30056, "name": "FENGYUN 1C DEB", "group": "fengyun-1c-debris", "lat": -14.859980838519673, "lon": -13.267948770399803, "alt_km": 791.089617729519, "timestamp": "2025-12-08T19:31:49.083106+00:00", "meta": {"OBJECT_NAME": "FENGYUN 1C DEB", "OBJECT_ID": "1999-025PH", "EPOCH": "2025-12-07T18:05:48.782976", "MEAN_MOTION": 13.7393222, "ECCENTRICITY": 0.02999528, "INCLINATION": 98.322, "RA_OF_ASC_NODE": 168.0331, "ARG_OF_PERICENTER": 224.2839, "MEAN_ANOMALY": 133.3959, "EPHEMERIS_TYPE": 0, "CLASSIFICATION_TYPE": "U", "NORAD_CAT_ID": 30056, "ELEMENT_SET_NO": 999, "REV_AT_EPOCH": 93907, "BSTAR": 0.0047194239, "MEAN_MOTION_DOT": 6.092e-05, "MEAN_MOTION_DDOT": 0}, "tle": {"line1": "1 30056U 99025PH  25341.75403684  .00006092  00000+0  47194-2 0  9994", "line2": "2 30056  98.3220 168.0331 0299952 224.2839 133.3959 13.73932220939071"}}, "geometry": {"type": "Point", "coordinates": [-13.267948770399803, -14.859980838519673]}}, {"type": "Feature", "properties": {"norad_id": 30057, "name": "FENGYUN 1C DEB", "group": "fengyun-1c-debris", "lat": -20.869339809415532, "lon": -131.49323964956073, "alt_km": 893.1658404562913, "timestamp": "2025-12-08T19:31:49.083115+00:00", "meta": {"OBJECT_NAME": "FENGYUN 1C DEB", "OBJECT_ID": "1999-025PJ", "EPOCH": "2025-12-08T04:43:35.222880", "MEAN_MOTION": 13.5710436, "ECCENTRICITY": 0.02928029, "INCLINATION": 98.8833, "RA_OF_ASC_NODE": 51.3671, "ARG_OF_PERICENTER": 158.1286, "MEAN_ANOMALY": 268.6155, "EPHEMERIS_TYPE": 0, "CLASSIFICATION_TYPE": "U", "NORAD_CAT_ID": 30057, "ELEMENT_SET_NO": 999, "REV_AT_EPOCH": 93174, "BSTAR": 0.0016998854, "MEAN_MOTION_DOT": 1.562e-05, "MEAN_MOTION_DDOT": 0}, "tle": {"line1": "1 30057U 99025PJ  25342.19693545  .00001562  00000+0  16999-2 0  9997", "line2": "2 30057  98.8833  51.3671 0292802 158.1286 268.6155 13.57104360931740"}}, "geometry": {"type": "Point", "coordinates": [-131.49323964956073, -20.869339809415532]}}, {"type": "Feature", "properties": {"norad_id": 30058, "name": "FENGYUN 1C DEB", "group": "fengyun-1c-debris", "lat": 26.726995230445652, "lon": -17.725959606103753, "alt_km": 1239.944865410177, "timestamp": "2025-12-08T19:31:49.083124+00:00", "meta": {"OBJECT_NAME": "FENGYUN 1C DEB", "OBJECT_ID": "1999-025PK", "EPOCH": "2025-12-07T22:19:37.638336", "MEAN_MOTION": 13.4823022, "ECCENTRICITY": 0.03157042, "INCLINATION": 99.6495, "RA_OF_ASC_NODE": 346.3339, "ARG_OF_PERICENTER": 164.3149, "MEAN_ANOMALY": 259.7056, "EPHEMERIS_TYPE": 0, "CLASSIFICATION_TYPE": "U", "NORAD_CAT_ID": 30058, "ELEMENT_SET_NO": 999, "REV_AT_EPOCH": 92783, "BSTAR": 0.00074608918, "MEAN_MOTION_DOT": 5.85e-06, "MEAN_MOTION_DDOT": 0}, "tle": {"line1": "1 30058U 99025PK  25341.93029674  .00000585  00000+0  74609-3 0  9992", "line2": "2 30058  99.6495 346.3339 0315704 164.3149 259.7056 13.48230220927837"}}, "geometry": {"type": "Point", "coordinates": [-17.725959606103753, 26.726995230445652]}}, {"type": "Feature", "properties": {"norad_id": 30059, "name": "FENGYUN 1C DEB", "group": "fengyun-1c-debris", "lat": -38.13971790111675, "lon": 151.5656708685077, "alt_km": 1104.6340080227747, "timestamp": "2025-12-08T19:31:49.083134+00:00", "meta": {"OBJECT_NAME": "FENGYUN 1C DEB", "OBJECT_ID": "1999-025PL", "EPOCH": "2025-12-07T23:03:03.875328", "MEAN_MOTION": 13.45489869, "ECCENTRICITY": 0.03267989, "INCLINATION": 98.8221, "RA_OF_ASC_NODE": 337.8182, "ARG_OF_PERICENTER": 314.8351, "MEAN_ANOMALY": 96.4684, "EPHEMERIS_TYPE": 0, "CLASSIFICATION_TYPE": "U", "NORAD_CAT_ID": 30059, "ELEMENT_SET_NO": 999, "REV_AT_EPOCH": 92733, "BSTAR": 0.00061211663, "MEAN_MOTION_DOT": 4.62e-06, "MEAN_MOTION_DDOT": 0}, "tle": {"line1": "1 30059U 99025PL  25341.96046152  .00000462  00000+0  61212-3 0  9996", "line2": "2 30059  98.8221 337.8182 0326798 314.8351  96.4684 13.45489869927339"}}, "geometry": {"type": "Point", "coordinates": [151.5656708685077, -38.13971790111675]}}, {"type": "Feature", "properties": {"norad_id": 30060, "name": "FENGYUN 1C DEB", "group": "fengyun-1c-debris", "lat": 48.25426173352828, "lon": 40.39014653015189, "alt_km": 918.503662902931, "timestamp": "2025-12-08T19:31:49.083143+00:00", "meta": {"OBJECT_NAME": "FENGYUN 1C DEB", "OBJECT_ID": "1999-025PM", "EPOCH": "2025-12-08T03:33:30.436416", "MEAN_MOTION": 13.43734251, "ECCENTRICITY": 0.03442714, "INCLINATION": 99.314, "RA_OF_ASC_NODE": 209.1768, "ARG_OF_PERICENTER": 83.0651, "MEAN_ANOMALY": 67.1666, "EPHEMERIS_TYPE": 0, "CLASSIFICATION_TYPE": "U", "NORAD_CAT_ID": 30060, "ELEMENT_SET_NO": 999, "REV_AT_EPOCH": 92181, "BSTAR": 0.0026974099, "MEAN_MOTION_DOT": 2.18e-05, "MEAN_MOTION_DDOT": 0}, "tle": {"line1": "1 30060U 99025PM  25342.14826894  .00002180  00000+0  26974-2 0  9992", "line2": "2 30060  99.3140 209.1768 0344271  83.0651  67.1666 13.43734251921810"}}, "geometry": {"type": "Point", "coordinates": [40.39014653015189, 48.25426173352828]}}]}